IRIDIUM 159             
1 43578U 18061K   25110.75785275  .00000313  00000+0  10486-3 0  9996
2 43578  86.3983 233.1759 0002338  93.1980 266.9483 14.34216475352838
IRIDIUM 180             
1 43922U 19002A   25109.78059013  .00000066  00000+0  16630-4 0  9993
2 43922  86.4019 170.5679 0002252  92.2784 267.8669 14.34217928328309
IRIDIUM 176             
1 43923U 19002B   25110.19595611  .00001410  00000+0  21978-3 0  9994
2 43923  86.6152 170.3945 0001951  76.3534 283.7900 14.72244149337015
IRIDIUM 168             
1 43924U 19002C   25110.19285671  .00000300  00000+0  99914-4 0  9990
2 43924  86.4022 170.4614 0002331  96.3105 263.8357 14.34217837328346
IRIDIUM 173             
1 43925U 19002D   25110.18017333  .00000382  00000+0  12945-3 0  9996
2 43925  86.4019 170.3728 0002102  91.5439 268.5997 14.34217548328331
IRIDIUM 169             
1 43926U 19002E   25110.21404578  .00000663  00000+0  21013-3 0  9990
2 43926  86.4290 201.9220 0000782 114.5464 245.5816 14.38609497329414
IRIDIUM 172             
1 43927U 19002F   25109.68544984  .00000374  00000+0  12639-3 0  9999
2 43927  86.4019 170.5857 0002475  88.9767 271.1712 14.34218716328260
IRIDIUM 175             
1 43928U 19002G   25110.46267710  .00000540  00000+0  81620-4 0  9999
2 43928  86.1474 126.0955 0002123 116.9205 243.2228 14.72243074337042
